[{"OBJECT_NAME":"X-SAT","OBJECT_ID":"2011-015C","EPOCH":"2026-03-09T22:53:38.580000","MEAN_MOTION":14.25171741,"ECCENTRICITY":0.0012844,"INCLINATION":98.3436,"RA_OF_ASC_NODE":50.7528,"ARG_OF_PERICENTER":275.8425,"MEAN_ANOMALY":84.1292,"EPHEMERIS_TYPE":0,"CLASSIFICATION_TYPE":"U","NORAD_CAT_ID":37389,"ELEMENT_SET_NO":999,"REV_AT_EPOCH":77354,"BSTAR":-4.3267073e-5,"MEAN_MOTION_DOT":-1.43e-6,"MEAN_MOTION_DDOT":0},{"OBJECT_NAME":"CZ-6A DEB","OBJECT_ID":"2022-151AGF","EPOCH":"2026-03-06T00:48:35.577504","MEAN_MOTION":14.39751652,"ECCENTRICITY":0.00831535,"INCLINATION":98.6332,"RA_OF_ASC_NODE":101.0507,"ARG_OF_PERICENTER":306.898,"MEAN_ANOMALY":52.4608,"EPHEMERIS_TYPE":0,"CLASSIFICATION_TYPE":"U","NORAD_CAT_ID":56655,"ELEMENT_SET_NO":999,"REV_AT_EPOCH":15021,"BSTAR":0.00050035147,"MEAN_MOTION_DOT":1.585e-5,"MEAN_MOTION_DDOT":0}]
